{
  "type": "FeatureCollection",
  "name": "ais_qds_context_corridor",
  "features": [
    {
      "type": "Feature",
      "properties": {
        "name": "corridor_main_transit_lane",
        "label": "Great Belt Route T / BELTREP transit spine",
        "role": "corridor_membership_target",
        "recommended_buffer_meters": 700,
        "source_note": "Redesigned after AIS-density audit to follow the observed cargo transit spine from the southern Great Belt approach through the East Bridge and Hatter Barn direction. Informed by DMA Route T and BELTREP context. Buffer before loading. Not official routeing geometry."
      },
      "geometry": {
        "type": "LineString",
        "coordinates": [
          [10.88, 54.80],
          [10.96, 54.94],
          [11.05, 55.10],
          [11.09, 55.24],
          [11.03, 55.36],
          [10.94, 55.46],
          [10.85, 55.58],
          [10.79, 55.70],
          [10.82, 55.80],
          [10.90, 55.90],
          [11.03, 56.00],
          [11.18, 56.08]
        ]
      }
    }
  ]
}
