{
  "type": "FeatureCollection",
  "name": "ais_qds_context_zones",
  "features": [
    {
      "type": "Feature",
      "properties": {
        "name": "zone_port_approach",
        "label": "Korsor port and east-bridge approach zone",
        "role": "zone_entry_target",
        "source_note": "Redesigned after AIS-density audit. Represents the Korsor-side port/approach and manoeuvring area adjacent to the East Bridge traffic route. Informed by BELTREP / Great Belt VTS context; not an official port-limit polygon."
      },
      "geometry": {
        "type": "Polygon",
        "coordinates": [
          [
            [11.06, 55.27],
            [11.25, 55.27],
            [11.25, 55.39],
            [11.10, 55.42],
            [11.06, 55.27]
          ]
        ]
      }
    },
    {
      "type": "Feature",
      "properties": {
        "name": "zone_anchor_or_waiting_area",
        "label": "Kalundborg and Jammerland waiting-area zone",
        "role": "zone_entry_target",
        "source_note": "Redesigned after AIS low-speed cluster audit. Covers the Kalundborg/Jammerland waiting and anchorage-relevant area mentioned in BELTREP routeing context. Not an official anchorage boundary."
      },
      "geometry": {
        "type": "Polygon",
        "coordinates": [
          [
            [10.94, 55.44],
            [11.24, 55.44],
            [11.25, 55.68],
            [10.98, 55.71],
            [10.94, 55.44]
          ]
        ]
      }
    },
    {
      "type": "Feature",
      "properties": {
        "name": "zone_narrow_passage_control",
        "label": "Sprogoe and East Bridge narrow-passage control zone",
        "role": "zone_entry_target",
        "source_note": "Redesigned after AIS-density audit. Tightened around the Sprogoe / East Bridge controlled passage instead of covering the wider surrounding water. Informed by BELTREP provisions for the East Bridge traffic route; not an official TSS polygon."
      },
      "geometry": {
        "type": "Polygon",
        "coordinates": [
          [
            [10.92, 55.28],
            [11.08, 55.28],
            [11.08, 55.39],
            [10.92, 55.39],
            [10.92, 55.28]
          ]
        ]
      }
    }
  ]
}
